[{"OBJECT_NAME":"STARLINK-34951","OBJECT_ID":"2025-184W","EPOCH":"2026-03-09T17:08:57.119136","MEAN_MOTION":15.05647708,"ECCENTRICITY":9.497e-5,"INCLINATION":97.6018,"RA_OF_ASC_NODE":122.6725,"ARG_OF_PERICENTER":108.144,"MEAN_ANOMALY":251.989,"EPHEMERIS_TYPE":0,"CLASSIFICATION_TYPE":"U","NORAD_CAT_ID":65293,"ELEMENT_SET_NO":999,"REV_AT_EPOCH":3130,"BSTAR":0.00012663302,"MEAN_MOTION_DOT":1.767e-5,"MEAN_MOTION_DDOT":0},{"OBJECT_NAME":"SL-3 R\/B","OBJECT_ID":"1982-039B","EPOCH":"2026-03-09T22:07:28.779168","MEAN_MOTION":15.10083319,"ECCENTRICITY":0.00297187,"INCLINATION":81.1583,"RA_OF_ASC_NODE":215.6942,"ARG_OF_PERICENTER":323.7089,"MEAN_ANOMALY":36.212,"EPHEMERIS_TYPE":0,"CLASSIFICATION_TYPE":"U","NORAD_CAT_ID":13154,"ELEMENT_SET_NO":999,"REV_AT_EPOCH":38167,"BSTAR":0.00020843464,"MEAN_MOTION_DOT":3.451e-5,"MEAN_MOTION_DDOT":0}]
